1 31435U 99025BTX 18212.08437918  .00000023  00000-0  18967-4 0  9995
2 31435  98.9816 163.6037 0159954 333.9093  25.4099 14.48656727594803
1 31436U 99025BTY 18210.70264575 +.00000884 +00000-0 +35300-3 0  9994
2 31436 098.8626 292.6403 0132636 289.0937 224.8955 14.26444860581438
1 31437U 99025BTZ 18212.44576774  .00000678  00000-0  33901-3 0  9991
2 31437  98.9692 203.0450 0020336 100.0185 260.3287 14.20058410584354
1 31439U 99025BUB 18212.34854230  .00000243  00000-0  21294-3 0  9998
2 31439  99.1413 255.9641 0143529 301.3556 117.2512 13.90605314574577
1 31440U 99025BUC 18212.07409470  .00000632  00000-0  32423-3 0  9990
2 31440  98.9004 259.2758 0047606 188.9723 171.0606 14.18441549584170
1 31441U 99025BUD 18211.97550255  .00000165  00000-0  10100-3 0  9996
2 31441  99.3189 270.7313 0274244  10.8329 349.8581 14.01862673580327
1 31442U 99025BUE 18212.06680796  .00000083  00000-0  48799-4 0  9997
2 31442  98.6466 297.4219 0085758   3.0610 357.1079 14.28480079589841
1 31443U 99025BUF 18211.47305741 +.00000259 +00000-0 +93286-4 0  9992
2 31443 099.2310 095.2605 0252614 335.6476 023.2932 14.27038058283992
1 31444U 99025BUG 18212.56344190  .00000763  00000-0  27423-3 0  9994
2 31444  98.9338 347.1779 0110653 122.8655 238.3236 14.33427058590076
1 31445U 99025BUH 18211.39326654  .00001320  00000-0  31031-3 0  9990
2 31445  98.9099  57.6140 0060677 172.0682 311.1281 14.55162696593096
1 31446U 99025BUJ 18212.07940484  .00001302  00000-0  56147-3 0  9995
2 31446  98.7361 160.7140 0077634 113.2280 247.7098 14.24587886584576
1 31447U 99025BUK 18212.32324031  .00000123  00000-0  59347-4 0  9994
2 31447  98.8670 160.1255 0239255 154.7422 206.5682 14.20972100586341
1 31448U 99025BUL 18210.33018225 +.00000216 +00000-0 +11870-3 0  9990
2 31448 098.7329 248.5734 0065668 098.8344 262.0275 14.20285771586077
1 31449U 99025BUM 18211.80034189 +.00000032 +00000-0 +27982-4 0  9999
2 31449 098.8544 217.5836 0149819 250.3730 108.1229 14.30739350591222
1 31450U 99025BUN 18211.58463539 +.00001931 +00000-0 +11269-3 0  9990
2 31450 098.5584 347.3572 0335848 086.6806 277.2757 14.76396928594066
1 31451U 99025BUP 18212.54847394  .00000053  00000-0  55101-4 0  9991
2 31451  99.0679 233.1599 0031437 247.3369 267.0105 14.10495413583289
1 31452U 99025BUQ 18211.31800998 +.00000120 +00000-0 +88935-4 0  9991
2 31452 098.7600 250.8293 0041381 244.1547 115.5355 14.11715580581912
1 31453U 99025BUR 13108.74280262 +.00000791 +00000-0 +18700-3 0  9991
2 31453 098.8000 213.4019 0106835 015.4093 345.0313 14.53808865318467
1 31455U 99025BUT 18211.37266286 +.00000147 +00000-0 +86553-4 0  9999
2 31455 098.7887 271.1576 0225236 139.5424 222.2740 14.08831679581756
1 31456U 99025BUU 18211.48709368  .00000218  00000-0  96780-4 0  9997
2 31456  98.6416 294.6727 0081182 354.7326   5.2994 14.30701595589963
1 31457U 99025BUV 18211.76290700 +.00000842 +00000-0 +72738-4 0  9994
2 31457 099.0140 321.4753 0147995 028.5473 332.3746 14.92807597605083
1 31458U 99025BUW 18211.28451183 +.00000627 +00000-0 +16335-3 0  9997
2 31458 099.2193 219.9044 0089329 154.9722 205.5840 14.51320770266789
1 31459U 99025BUX 18208.38572961 +.00000619 +00000-0 +26878-3 0  9997
2 31459 098.1371 260.9518 0125849 214.5804 144.7144 14.23116596583680
1 31462U 99025BVA 18211.53589000  .00000146  00000-0  10753-3 0  9994
2 31462  98.9697 240.2859 0032450 261.0759 258.1372 14.10174706580440
1 31463U 99025BVB 18211.79738015 +.00000085 +00000-0 +41836-4 0  9994
2 31463 099.1137 049.1804 0232598 315.9911 042.2955 14.29628019262079
1 31464U 99025BVC 18211.26004896 +.00000111 +00000-0 +88596-4 0  9994
2 31464 099.1091 227.0657 0044072 262.7701 155.2349 14.09937292567182
1 31465U 99025BVD 18211.11703580 +.00001090 +00000-0 +69319-3 0  9993
2 31465 098.6442 331.5175 0125145 278.9537 079.7481 14.02006384571320
1 31466U 99025BVE 18180.71739678  .00000007  00000-0  19279-4 0  9990
2 31466  99.2368 348.6698 0307539 102.3064 326.1397 14.16382076578634
1 31467U 99025BVF 18210.33666908 +.00000757 +00000-0 +61208-3 0  9998
2 31467 098.5830 242.3593 0171924 217.7365 141.1634 13.86458796568511
1 31468U 99025BVG 18211.99898336  .00000055  00000-0  28383-4 0  9993
2 31468  98.3955 268.6742 0186380  15.6595 345.0251 14.38198716591334
1 31471U 99025BVK 18211.32015166 +.00000091 +00000-0 +76385-4 0  9991
2 31471 097.9487 030.8419 0183965 130.1666 231.5774 13.97645432262386
1 31473U 99025BVM 18211.99965373  .00000466  00000-0  24855-3 0  9990
2 31473  98.8158 260.4486 0078236 219.3231 259.5337 14.16542691580653
1 31474U 99025BVN 18211.73995248 +.00000539 +00000-0 +37418-3 0  9997
2 31474 099.1454 188.7075 0079914 092.2273 268.8045 14.01659819571880
1 31475U 99025BVP 18211.55228516  .00000072  00000-0  38360-4 0  9995
2 31475  98.9067 333.7801 0244714   4.9879 355.3655 14.26224972585037
1 31476U 99025BVQ 18209.01320330 +.00000394 +00000-0 +24404-3 0  9991
2 31476 099.0986 230.0152 0059370 225.4041 163.7924 14.10274351576287
1 31477U 99025BVR 18210.86218448 +.00000282 +00000-0 +20408-3 0  9999
2 31477 098.9328 237.4223 0117773 322.1624 037.1305 14.01255126576770
1 31478U 99025BVS 18211.60475760  .00001877  00000-0  65121-3 0  9997
2 31478 102.5909 247.4699 0054986 169.5671 348.9331 14.36812715584511
1 31480U 99025BVU 18211.91079424  .00001353  00000-0  94983-3 0  9998
2 31480  98.3547   2.9645 0412919 274.7013 241.9699 13.65532441565640
1 31481U 99025BVV 18210.60662207 +.00002013 +00000-0 +35460-3 0  9990
2 31481 099.2381 262.8566 0055838 188.4456 171.5811 14.67925531593779
1 31482U 99025BVW 18211.61768713 +.00000259 +00000-0 +11797-3 0  9999
2 31482 098.5962 254.8681 0099710 296.5592 217.8005 14.27094954586701
1 31483U 99025BVX 18211.54476266 +.00000638 +00000-0 +48573-3 0  9994
2 31483 102.5091 226.0766 0153053 234.4203 285.1132 13.94298105570290
1 31484U 99025BVY 18211.56642126 +.00001852 +00000-0 +10933-2 0  9994
2 31484 101.8235 334.9978 0167092 169.7499 190.7133 14.02952171262056
1 31485U 99025BVZ 18211.86963335  .00000060  00000-0  14072-3 0  9995
2 31485 102.7222  88.8780 0512088 287.0887  67.4759 13.26050215548158
1 31486U 99025BWA 18210.26103759 +.00000984 +00000-0 +44845-3 0  9991
2 31486 102.2798 017.6781 0021959 002.6018 357.5258 14.25405715581863
1 31487U 99025BWB 18210.35848941 +.00000096 +00000-0 +13052-3 0  9991
2 31487 102.4212 162.0528 0129893 255.7812 258.4406 13.88699301569561
1 31488U 99025BWC 18211.33008779 +.00000969 +00000-0 +34780-3 0  9998
2 31488 102.6772 257.6749 0085985 063.8388 297.1594 14.35891287262243
1 31491U 99025BWE 18210.83509058 +.00000251 +00000-0 +18339-3 0  9998
2 31491 099.3250 346.4510 0062234 164.7102 195.5963 14.04517685573553
1 31492U 99025BWF 18211.65959034 +.00000596 +00000-0 +25773-3 0  9995
2 31492 098.8659 284.3807 0140607 344.7919 178.2161 14.22986819579527
1 31493U 99025BWG 18184.91357746  .00000098  00000-0  11808-3 0  9997
2 31493 100.1669 213.6502 0128761  81.6234 279.9494 13.87639704565865
1 31494U 99025BWH 18211.42430420 +.00000606 +00000-0 +24779-3 0  9992
2 31494 099.5882 276.6267 0033055 013.0734 347.1295 14.31222197224151
1 31495U 99025BWJ 18210.14356746 +.00000411 +00000-0 +23185-3 0  9993
2 31495 099.0509 323.3913 0031985 271.4250 088.3259 14.15797636579956
1 31496U 99025BWK 18211.48234014 +.00002350 +00000-0 +12825-3 0  9998
2 31496 099.1222 109.2323 0115358 100.5522 260.8722 15.10163056604384
1 31497U 99025BWL 18211.93590545 +.00000026 +00000-0 +21067-4 0  9990
2 31497 098.3945 244.7454 0177202 124.1840 355.4809 14.35813905589042
1 31498U 99025BWM 18210.63811063 +.00000631 +00000-0 +64098-3 0  9990
2 31498 098.5063 095.1025 0237802 144.4832 217.2412 13.68269618558342
1 31499U 99025BWN 18209.57093885 +.00001149 +00000-0 +81586-3 0  9992
2 31499 097.6753 116.7994 0329168 152.7615 209.1240 13.75984299562163
1 31500U 99025BWP 18210.52111758 +.00005860 +00000-0 +27965-3 0  9997
2 31500 098.8939 098.6157 0248224 017.6846 343.2822 14.96360824593124
1 31501U 99025BWQ 18208.91325425 +.00000388 +00000-0 +22469-3 0  9990
2 31501 098.9746 244.7217 0046295 124.5243 236.0313 14.14233240252583
1 31502U 99025BWR 18211.01564058 +.00000776 +00000-0 +52726-3 0  9993
2 31502 099.2546 238.2928 0082972 139.2050 221.5366 14.01550049227588
1 31503U 99025BWS 18211.35277164  .00000286  00000-0  18289-3 0  9992
2 31503 100.1324  44.8810 0056927 343.8583  16.0769 14.12239504579532
1 31504U 99025BWT 18211.53909904  .00001568  00000-0  44475-3 0  9997
2 31504 101.5085  90.8273 0154814  17.7693  97.8110 14.41018229584870
1 31505U 99025BWU 18211.94274207 +.00001007 +00000-0 +43574-3 0  9991
2 31505 101.9294 210.8174 0048782 309.3375 050.3475 14.27318420579225
1 31507U 99025BWW 18210.59477998 +.00000130 +00000-0 +48106-4 0  9998
2 31507 098.5177 245.7869 0132028 335.0494 176.9724 14.43544994591435
1 31508U 99025BWX 18212.11059792  .00000466  00000-0  20039-3 0  9993
2 31508  98.7818 263.0025 0056641  15.7321 344.5603 14.28530044583922
1 31509U 99025BWY 18210.48636294 +.00000448 +00000-0 +35917-3 0  9991
2 31509 098.8764 044.3101 0224643 325.8436 032.8437 13.84641928567020
1 31510U 99025BWZ 18211.89948125 +.00000077 +00000-0 +56976-4 0  9995
2 31510 098.7154 245.3575 0039459 199.6593 285.6163 14.19486564582610
1 31511U 99025BXA 18211.02172420  .00000474  00000-0  25511-3 0  9999
2 31511  98.9903 302.1097 0130511 324.6528  34.6043 14.13452531578294
1 31512U 99025BXB 18211.18539531 +.00000177 +00000-0 +68539-4 0  9995
2 31512 098.8152 339.6597 0163140 169.1207 313.5458 14.35071207268229
1 31513U 99025BXC 18211.91817197 +.00000425 +00000-0 +24691-3 0  9990
2 31513 098.9789 258.4853 0035637 253.3298 106.3961 14.13883384347009
1 31514U 99025BXD 18208.13795223 +.00000478 +00000-0 +30132-3 0  9991
2 31514 099.2482 337.6760 0063211 089.6752 271.1659 14.08308690312851
1 31515U 99025BXE 18211.02215108 +.00000404 +00000-0 +27932-3 0  9996
2 31515 099.0226 291.2841 0061964 105.1392 255.6640 14.03827670205316
1 31516U 99025BXF 18211.74286931 +.00000038 +00000-0 +33193-4 0  9998
2 31516 098.7836 301.6414 0159627 084.8825 067.0076 14.20556469582365
